{"fetched_at":"2026-07-07T18:29:30.211Z","source":"https://celestrak.org/NORAD/elements/gp.php?NAME=HAWK&FORMAT=JSON","constellation":"hawkeye-360","records":[{"OBJECT_NAME":"HAWK-7B","OBJECT_ID":"2023-054R","EPOCH":"2026-07-07T03:45:19.090080","CLASSIFICATION_TYPE":"U","MEAN_MOTION":15.27578846,"ECCENTRICITY":0.0002208,"INCLINATION":97.2702,"RA_OF_ASC_NODE":73.2569,"ARG_OF_PERICENTER":31.2593,"MEAN_ANOMALY":328.8778,"EPHEMERIS_TYPE":0,"NORAD_CAT_ID":56193,"ELEMENT_SET_NO":999,"REV_AT_EPOCH":18007,"BSTAR":0.00016063,"MEAN_MOTION_DOT":0.00004259,"MEAN_MOTION_DDOT":0},{"OBJECT_NAME":"HAWK-7C","OBJECT_ID":"2023-054Y","EPOCH":"2026-07-06T18:19:11.400096","CLASSIFICATION_TYPE":"U","MEAN_MOTION":15.27574338,"ECCENTRICITY":0.0001922,"INCLINATION":97.2677,"RA_OF_ASC_NODE":73.6361,"ARG_OF_PERICENTER":19.6555,"MEAN_ANOMALY":340.4758,"EPHEMERIS_TYPE":0,"NORAD_CAT_ID":56200,"ELEMENT_SET_NO":999,"REV_AT_EPOCH":18001,"BSTAR":0.00018249,"MEAN_MOTION_DOT":0.00004848,"MEAN_MOTION_DDOT":0},{"OBJECT_NAME":"HAWK-8A","OBJECT_ID":"2024-066B","EPOCH":"2026-07-07T08:51:11.968128","CLASSIFICATION_TYPE":"U","MEAN_MOTION":14.99271545,"ECCENTRICITY":0.0002338,"INCLINATION":45.5938,"RA_OF_ASC_NODE":172.2879,"ARG_OF_PERICENTER":184.9013,"MEAN_ANOMALY":175.1846,"EPHEMERIS_TYPE":0,"NORAD_CAT_ID":59443,"ELEMENT_SET_NO":999,"REV_AT_EPOCH":12286,"BSTAR":0.00011194,"MEAN_MOTION_DOT":0.00001155,"MEAN_MOTION_DDOT":0},{"OBJECT_NAME":"HAWK-8B","OBJECT_ID":"2024-066D","EPOCH":"2026-07-07T10:27:48.425760","CLASSIFICATION_TYPE":"U","MEAN_MOTION":14.99271083,"ECCENTRICITY":0.0001881,"INCLINATION":45.6168,"RA_OF_ASC_NODE":173.9055,"ARG_OF_PERICENTER":183.862,"MEAN_ANOMALY":176.2247,"EPHEMERIS_TYPE":0,"NORAD_CAT_ID":59445,"ELEMENT_SET_NO":999,"REV_AT_EPOCH":12286,"BSTAR":0.00049629,"MEAN_MOTION_DOT":0.00005918,"MEAN_MOTION_DDOT":0},{"OBJECT_NAME":"HAWK-9A","OBJECT_ID":"2024-066E","EPOCH":"2026-07-07T07:48:14.744160","CLASSIFICATION_TYPE":"U","MEAN_MOTION":14.991986,"ECCENTRICITY":0.000204,"INCLINATION":45.6083,"RA_OF_ASC_NODE":173.1431,"ARG_OF_PERICENTER":166.5726,"MEAN_ANOMALY":193.5209,"EPHEMERIS_TYPE":0,"NORAD_CAT_ID":59446,"ELEMENT_SET_NO":999,"REV_AT_EPOCH":12285,"BSTAR":0.00011766,"MEAN_MOTION_DOT":0.00001223,"MEAN_MOTION_DDOT":0},{"OBJECT_NAME":"HAWK-9C","OBJECT_ID":"2024-066G","EPOCH":"2026-07-07T03:00:46.497024","CLASSIFICATION_TYPE":"U","MEAN_MOTION":14.99201265,"ECCENTRICITY":0.0001866,"INCLINATION":45.6044,"RA_OF_ASC_NODE":173.2768,"ARG_OF_PERICENTER":144.2016,"MEAN_ANOMALY":215.899,"EPHEMERIS_TYPE":0,"NORAD_CAT_ID":59448,"ELEMENT_SET_NO":999,"REV_AT_EPOCH":12282,"BSTAR":0.00012531,"MEAN_MOTION_DOT":0.00001318,"MEAN_MOTION_DDOT":0},{"OBJECT_NAME":"HAWK-8C","OBJECT_ID":"2024-066H","EPOCH":"2026-07-07T10:27:04.450752","CLASSIFICATION_TYPE":"U","MEAN_MOTION":14.99276386,"ECCENTRICITY":0.0002222,"INCLINATION":45.6051,"RA_OF_ASC_NODE":172.9334,"ARG_OF_PERICENTER":197.7538,"MEAN_ANOMALY":162.3266,"EPHEMERIS_TYPE":0,"NORAD_CAT_ID":59449,"ELEMENT_SET_NO":999,"REV_AT_EPOCH":12286,"BSTAR":0.0001323,"MEAN_MOTION_DOT":0.00001408,"MEAN_MOTION_DDOT":0},{"OBJECT_NAME":"HAWK-9B","OBJECT_ID":"2024-066J","EPOCH":"2026-07-07T09:24:37.569600","CLASSIFICATION_TYPE":"U","MEAN_MOTION":14.99199766,"ECCENTRICITY":0.0002063,"INCLINATION":45.6122,"RA_OF_ASC_NODE":173.7316,"ARG_OF_PERICENTER":136.1055,"MEAN_ANOMALY":223.999,"EPHEMERIS_TYPE":0,"NORAD_CAT_ID":59450,"ELEMENT_SET_NO":999,"REV_AT_EPOCH":12286,"BSTAR":0.00012116,"MEAN_MOTION_DOT":0.00001267,"MEAN_MOTION_DDOT":0},{"OBJECT_NAME":"HAWK-10A","OBJECT_ID":"2024-149CA","EPOCH":"2026-07-07T03:52:26.607648","CLASSIFICATION_TYPE":"U","MEAN_MOTION":14.96576892,"ECCENTRICITY":0.0003761,"INCLINATION":97.6892,"RA_OF_ASC_NODE":263.7296,"ARG_OF_PERICENTER":32.5948,"MEAN_ANOMALY":327.5505,"EPHEMERIS_TYPE":0,"NORAD_CAT_ID":60540,"ELEMENT_SET_NO":999,"REV_AT_EPOCH":10297,"BSTAR":0.00017466,"MEAN_MOTION_DOT":0.00001931,"MEAN_MOTION_DDOT":0},{"OBJECT_NAME":"HAWK-10B","OBJECT_ID":"2024-149CF","EPOCH":"2026-07-06T16:38:17.225088","CLASSIFICATION_TYPE":"U","MEAN_MOTION":14.96575583,"ECCENTRICITY":0.0006143,"INCLINATION":97.6813,"RA_OF_ASC_NODE":262.605,"ARG_OF_PERICENTER":43.1859,"MEAN_ANOMALY":316.9843,"EPHEMERIS_TYPE":0,"NORAD_CAT_ID":60545,"ELEMENT_SET_NO":999,"REV_AT_EPOCH":10290,"BSTAR":0.00018943,"MEAN_MOTION_DOT":0.00002099,"MEAN_MOTION_DDOT":0},{"OBJECT_NAME":"HAWK-10C","OBJECT_ID":"2024-149DM","EPOCH":"2026-07-07T10:17:50.009856","CLASSIFICATION_TYPE":"U","MEAN_MOTION":14.96577564,"ECCENTRICITY":0.0003322,"INCLINATION":97.6731,"RA_OF_ASC_NODE":262.6456,"ARG_OF_PERICENTER":22.2576,"MEAN_ANOMALY":337.8789,"EPHEMERIS_TYPE":0,"NORAD_CAT_ID":60575,"ELEMENT_SET_NO":999,"REV_AT_EPOCH":10301,"BSTAR":0.00016228,"MEAN_MOTION_DOT":0.0000179,"MEAN_MOTION_DDOT":0},{"OBJECT_NAME":"HAWK-11B","OBJECT_ID":"2024-247C","EPOCH":"2026-07-07T09:41:45.447072","CLASSIFICATION_TYPE":"U","MEAN_MOTION":15.30594788,"ECCENTRICITY":0.0004077,"INCLINATION":45.0136,"RA_OF_ASC_NODE":178.8987,"ARG_OF_PERICENTER":337.7618,"MEAN_ANOMALY":22.3089,"EPHEMERIS_TYPE":0,"NORAD_CAT_ID":62379,"ELEMENT_SET_NO":999,"REV_AT_EPOCH":8610,"BSTAR":0.00016471,"MEAN_MOTION_DOT":0.00004662,"MEAN_MOTION_DDOT":0},{"OBJECT_NAME":"HAWK-11C","OBJECT_ID":"2024-247E","EPOCH":"2026-07-07T08:07:06.477024","CLASSIFICATION_TYPE":"U","MEAN_MOTION":15.30591577,"ECCENTRICITY":0.0004967,"INCLINATION":45.002,"RA_OF_ASC_NODE":178.5981,"ARG_OF_PERICENTER":327.7848,"MEAN_ANOMALY":32.2733,"EPHEMERIS_TYPE":0,"NORAD_CAT_ID":62381,"ELEMENT_SET_NO":999,"REV_AT_EPOCH":8609,"BSTAR":0.00015533,"MEAN_MOTION_DOT":0.00004379,"MEAN_MOTION_DDOT":0},{"OBJECT_NAME":"HAWK-11A","OBJECT_ID":"2024-247F","EPOCH":"2026-07-07T08:07:13.761408","CLASSIFICATION_TYPE":"U","MEAN_MOTION":15.30592316,"ECCENTRICITY":0.000447,"INCLINATION":44.992,"RA_OF_ASC_NODE":177.9339,"ARG_OF_PERICENTER":327.082,"MEAN_ANOMALY":32.9785,"EPHEMERIS_TYPE":0,"NORAD_CAT_ID":62382,"ELEMENT_SET_NO":999,"REV_AT_EPOCH":8609,"BSTAR":0.00015465,"MEAN_MOTION_DOT":0.00004358,"MEAN_MOTION_DDOT":0},{"OBJECT_NAME":"HAWK-12C","OBJECT_ID":"2025-138A","EPOCH":"2026-07-06T22:42:19.540800","CLASSIFICATION_TYPE":"U","MEAN_MOTION":15.1836218,"ECCENTRICITY":0.0015728,"INCLINATION":97.435,"RA_OF_ASC_NODE":190.0553,"ARG_OF_PERICENTER":77.3107,"MEAN_ANOMALY":282.9884,"EPHEMERIS_TYPE":0,"NORAD_CAT_ID":64621,"ELEMENT_SET_NO":999,"REV_AT_EPOCH":5686,"BSTAR":0.00018396,"MEAN_MOTION_DOT":0.00003723,"MEAN_MOTION_DDOT":0},{"OBJECT_NAME":"HAWK-12B","OBJECT_ID":"2025-138B","EPOCH":"2026-07-06T22:42:34.502688","CLASSIFICATION_TYPE":"U","MEAN_MOTION":15.18361521,"ECCENTRICITY":0.0014667,"INCLINATION":97.4471,"RA_OF_ASC_NODE":190.7358,"ARG_OF_PERICENTER":73.0285,"MEAN_ANOMALY":287.2555,"EPHEMERIS_TYPE":0,"NORAD_CAT_ID":64622,"ELEMENT_SET_NO":999,"REV_AT_EPOCH":5686,"BSTAR":0.00017762,"MEAN_MOTION_DOT":0.0000359,"MEAN_MOTION_DDOT":0}]}
