HAWK-7B                 
1 56193U 23054R   26188.15647095  .00004259  00000+0  16063-3 0  9998
2 56193  97.2702  73.2569 0002208  31.2593 328.8778 15.27578846180072
HAWK-7C                 
1 56200U 23054Y   26187.76332639  .00004848  00000+0  18249-3 0  9990
2 56200  97.2677  73.6361 0001922  19.6555 340.4758 15.27574338180010
HAWK-8A                 
1 59443U 24066B   26188.36888852  .00001155  00000+0  11194-3 0  9996
2 59443  45.5938 172.2879 0002338 184.9013 175.1846 14.99271545122867
HAWK-8B                 
1 59445U 24066D   26188.43597715  .00005918  00000+0  49629-3 0  9996
2 59445  45.6168 173.9055 0001881 183.8620 176.2247 14.99271083122867
HAWK-9A                 
1 59446U 24066E   26188.32517065  .00001223  00000+0  11766-3 0  9991
2 59446  45.6083 173.1431 0002040 166.5726 193.5209 14.99198600122859
HAWK-9C                 
1 59448U 24066G   26188.12553816  .00001318  00000+0  12531-3 0  9991
2 59448  45.6044 173.2768 0001866 144.2016 215.8990 14.99201265122826
HAWK-8C                 
1 59449U 24066H   26188.43546818  .00001408  00000+0  13230-3 0  9997
2 59449  45.6051 172.9334 0002222 197.7538 162.3266 14.99276386122861
HAWK-9B                 
1 59450U 24066J   26188.39210150  .00001267  00000+0  12116-3 0  9996
2 59450  45.6122 173.7316 0002063 136.1055 223.9990 14.99199766122869
HAWK-10A                
1 60540U 24149CA  26188.16141907  .00001931  00000+0  17466-3 0  9999
2 60540  97.6892 263.7296 0003761  32.5948 327.5505 14.96576892102974
HAWK-10B                
1 60545U 24149CF  26187.69325492  .00002099  00000+0  18943-3 0  9991
2 60545  97.6813 262.6050 0006143  43.1859 316.9843 14.96575583102900
HAWK-10C                
1 60575U 24149DM  26188.42905104  .00001790  00000+0  16228-3 0  9991
2 60575  97.6731 262.6456 0003322  22.2576 337.8789 14.96577564103017
HAWK-11B                
1 62379U 24247C   26188.40399823  .00004662  00000+0  16471-3 0  9998
2 62379  45.0136 178.8987 0004077 337.7618  22.3089 15.30594788 86108
HAWK-11C                
1 62381U 24247E   26188.33826941  .00004379  00000+0  15533-3 0  9992
2 62381  45.0020 178.5981 0004967 327.7848  32.2733 15.30591577 86093
HAWK-11A                
1 62382U 24247F   26188.33835372  .00004358  00000+0  15465-3 0  9992
2 62382  44.9920 177.9339 0004470 327.0820  32.9785 15.30592316 86099
HAWK-12C                
1 64621U 25138A   26187.94605950  .00003723  00000+0  18396-3 0  9994
2 64621  97.4350 190.0553 0015728  77.3107 282.9884 15.18362180 56861
HAWK-12B                
1 64622U 25138B   26187.94623267  .00003590  00000+0  17762-3 0  9994
2 64622  97.4471 190.7358 0014667  73.0285 287.2555 15.18361521 56868
